CCSDS_OMM_VERS = 2.0
CREATION_DATE  = 
ORIGINATOR     = 

OBJECT_NAME    = STARLINK-36603
OBJECT_ID      = 2026-018D
CENTER_NAME    = EARTH
REF_FRAME      = TEME
TIME_SYSTEM    = UTC
MEAN_ELEMENT_THEORY = SGP/SGP4

EPOCH          = 2026-02-14T08:41:20.839200
MEAN_MOTION    = 15.80913298
ECCENTRICITY   = .0001125
INCLINATION    = 97.2849
RA_OF_ASC_NODE = 109.9893
ARG_OF_PERICENTER = 97.1077
MEAN_ANOMALY   = 263.0320

EPHEMERIS_TYPE = 0
CLASSIFICATION_TYPE = U
NORAD_CAT_ID   = 67592
ELEMENT_SET_NO = 999
REV_AT_EPOCH   = 363
BSTAR          = .11733E-2
MEAN_MOTION_DOT = .231692E-2
MEAN_MOTION_DDOT = 0

CCSDS_OMM_VERS = 2.0
CREATION_DATE  = 
ORIGINATOR     = 

OBJECT_NAME    = STARLINK-36634
OBJECT_ID      = 2026-018E
CENTER_NAME    = EARTH
REF_FRAME      = TEME
TIME_SYSTEM    = UTC
MEAN_ELEMENT_THEORY = SGP/SGP4

EPOCH          = 2026-02-14T11:42:00.118368
MEAN_MOTION    = 15.80879315
ECCENTRICITY   = .000081
INCLINATION    = 97.2849
RA_OF_ASC_NODE = 110.1247
ARG_OF_PERICENTER = 110.2783
MEAN_ANOMALY   = 249.8572

EPHEMERIS_TYPE = 0
CLASSIFICATION_TYPE = U
NORAD_CAT_ID   = 67593
ELEMENT_SET_NO = 999
REV_AT_EPOCH   = 365
BSTAR          = .10079E-2
MEAN_MOTION_DOT = .197923E-2
MEAN_MOTION_DDOT = 0

CCSDS_OMM_VERS = 2.0
CREATION_DATE  = 
ORIGINATOR     = 

OBJECT_NAME    = STARLINK-36638
OBJECT_ID      = 2026-018F
CENTER_NAME    = EARTH
REF_FRAME      = TEME
TIME_SYSTEM    = UTC
MEAN_ELEMENT_THEORY = SGP/SGP4

EPOCH          = 2026-02-14T11:40:24.208320
MEAN_MOTION    = 15.80900807
ECCENTRICITY   = .000108
INCLINATION    = 97.2849
RA_OF_ASC_NODE = 110.1266
ARG_OF_PERICENTER = 136.0323
MEAN_ANOMALY   = 224.1032

EPHEMERIS_TYPE = 0
CLASSIFICATION_TYPE = U
NORAD_CAT_ID   = 67594
ELEMENT_SET_NO = 999
REV_AT_EPOCH   = 365
BSTAR          = .11589E-2
MEAN_MOTION_DOT = .228633E-2
MEAN_MOTION_DDOT = 0

CCSDS_OMM_VERS = 2.0
CREATION_DATE  = 
ORIGINATOR     = 

OBJECT_NAME    = STARLINK-36628
OBJECT_ID      = 2026-018G
CENTER_NAME    = EARTH
REF_FRAME      = TEME
TIME_SYSTEM    = UTC
MEAN_ELEMENT_THEORY = SGP/SGP4

EPOCH          = 2026-02-14T08:36:57.860928
MEAN_MOTION    = 15.80451878
ECCENTRICITY   = .0001554
INCLINATION    = 97.2854
RA_OF_ASC_NODE = 109.9927
ARG_OF_PERICENTER = 63.5944
MEAN_ANOMALY   = 296.5484

EPHEMERIS_TYPE = 0
CLASSIFICATION_TYPE = U
NORAD_CAT_ID   = 67595
ELEMENT_SET_NO = 999
REV_AT_EPOCH   = 363
BSTAR          = -.27077E-2
MEAN_MOTION_DOT = -.483039E-2
MEAN_MOTION_DDOT = 0

CCSDS_OMM_VERS = 2.0
CREATION_DATE  = 
ORIGINATOR     = 

OBJECT_NAME    = STARLINK-36629
OBJECT_ID      = 2026-018H
CENTER_NAME    = EARTH
REF_FRAME      = TEME
TIME_SYSTEM    = UTC
MEAN_ELEMENT_THEORY = SGP/SGP4

EPOCH          = 2026-02-14T12:00:01.999296
MEAN_MOTION    = 15.75213394
ECCENTRICITY   = .0001319
INCLINATION    = 97.2845
RA_OF_ASC_NODE = 110.1261
ARG_OF_PERICENTER = 90.2124
MEAN_ANOMALY   = 315.8404

EPHEMERIS_TYPE = 0
CLASSIFICATION_TYPE = U
NORAD_CAT_ID   = 67596
ELEMENT_SET_NO = 999
REV_AT_EPOCH   = 361
BSTAR          = -.37095E-3
MEAN_MOTION_DOT = -.55159E-3
MEAN_MOTION_DDOT = 0

CCSDS_OMM_VERS = 2.0
CREATION_DATE  = 
ORIGINATOR     = 

OBJECT_NAME    = STARLINK-36384
OBJECT_ID      = 2026-018J
CENTER_NAME    = EARTH
REF_FRAME      = TEME
TIME_SYSTEM    = UTC
MEAN_ELEMENT_THEORY = SGP/SGP4

EPOCH          = 2026-02-14T11:36:09.729216
MEAN_MOTION    = 15.80883253
ECCENTRICITY   = .0000454
INCLINATION    = 97.2851
RA_OF_ASC_NODE = 110.1291
ARG_OF_PERICENTER = 114.7225
MEAN_ANOMALY   = 245.4091

EPHEMERIS_TYPE = 0
CLASSIFICATION_TYPE = U
NORAD_CAT_ID   = 67597
ELEMENT_SET_NO = 999
REV_AT_EPOCH   = 365
BSTAR          = .12171E-2
MEAN_MOTION_DOT = .240276E-2
MEAN_MOTION_DDOT = 0

CCSDS_OMM_VERS = 2.0
CREATION_DATE  = 
ORIGINATOR     = 

OBJECT_NAME    = STARLINK-36358
OBJECT_ID      = 2026-018K
CENTER_NAME    = EARTH
REF_FRAME      = TEME
TIME_SYSTEM    = UTC
MEAN_ELEMENT_THEORY = SGP/SGP4

EPOCH          = 2026-02-14T12:00:01.999296
MEAN_MOTION    = 15.75136087
ECCENTRICITY   = .0001314
INCLINATION    = 97.2849
RA_OF_ASC_NODE = 110.1402
ARG_OF_PERICENTER = 102.6582
MEAN_ANOMALY   = 337.3728

EPHEMERIS_TYPE = 0
CLASSIFICATION_TYPE = U
NORAD_CAT_ID   = 67598
ELEMENT_SET_NO = 999
REV_AT_EPOCH   = 366
BSTAR          = .77722E-3
MEAN_MOTION_DOT = .117126E-2
MEAN_MOTION_DDOT = 0

CCSDS_OMM_VERS = 2.0
CREATION_DATE  = 
ORIGINATOR     = 

OBJECT_NAME    = STARLINK-36582
OBJECT_ID      = 2026-018L
CENTER_NAME    = EARTH
REF_FRAME      = TEME
TIME_SYSTEM    = UTC
MEAN_ELEMENT_THEORY = SGP/SGP4

EPOCH          = 2026-02-14T11:33:21.124800
MEAN_MOTION    = 15.80887820
ECCENTRICITY   = .0000853
INCLINATION    = 97.2852
RA_OF_ASC_NODE = 110.1316
ARG_OF_PERICENTER = 42.1430
MEAN_ANOMALY   = 317.9904

EPHEMERIS_TYPE = 0
CLASSIFICATION_TYPE = U
NORAD_CAT_ID   = 67599
ELEMENT_SET_NO = 999
REV_AT_EPOCH   = 370
BSTAR          = .1234E-2
MEAN_MOTION_DOT = .243747E-2
MEAN_MOTION_DDOT = 0

CCSDS_OMM_VERS = 2.0
CREATION_DATE  = 
ORIGINATOR     = 

OBJECT_NAME    = STARLINK-36640
OBJECT_ID      = 2026-018M
CENTER_NAME    = EARTH
REF_FRAME      = TEME
TIME_SYSTEM    = UTC
MEAN_ELEMENT_THEORY = SGP/SGP4

EPOCH          = 2026-02-14T12:00:01.999296
MEAN_MOTION    = 15.75179164
ECCENTRICITY   = .0001396
INCLINATION    = 97.2848
RA_OF_ASC_NODE = 110.1300
ARG_OF_PERICENTER = 103.9112
MEAN_ANOMALY   = 314.1442

EPHEMERIS_TYPE = 0
CLASSIFICATION_TYPE = U
NORAD_CAT_ID   = 67600
ELEMENT_SET_NO = 999
REV_AT_EPOCH   = 362
BSTAR          = -.14142E-3
MEAN_MOTION_DOT = -.21161E-3
MEAN_MOTION_DDOT = 0

CCSDS_OMM_VERS = 2.0
CREATION_DATE  = 
ORIGINATOR     = 

OBJECT_NAME    = STARLINK-36635
OBJECT_ID      = 2026-018N
CENTER_NAME    = EARTH
REF_FRAME      = TEME
TIME_SYSTEM    = UTC
MEAN_ELEMENT_THEORY = SGP/SGP4

EPOCH          = 2026-02-14T11:32:04.279776
MEAN_MOTION    = 15.80893902
ECCENTRICITY   = .0000935
INCLINATION    = 97.2851
RA_OF_ASC_NODE = 110.1326
ARG_OF_PERICENTER = 111.6761
MEAN_ANOMALY   = 248.4607

EPHEMERIS_TYPE = 0
CLASSIFICATION_TYPE = U
NORAD_CAT_ID   = 67601
ELEMENT_SET_NO = 999
REV_AT_EPOCH   = 365
BSTAR          = .11776E-2
MEAN_MOTION_DOT = .232353E-2
MEAN_MOTION_DDOT = 0

CCSDS_OMM_VERS = 2.0
CREATION_DATE  = 
ORIGINATOR     = 

OBJECT_NAME    = STARLINK-36631
OBJECT_ID      = 2026-018P
CENTER_NAME    = EARTH
REF_FRAME      = TEME
TIME_SYSTEM    = UTC
MEAN_ELEMENT_THEORY = SGP/SGP4

EPOCH          = 2026-02-14T11:28:38.993376
MEAN_MOTION    = 15.80856723
ECCENTRICITY   = .0001525
INCLINATION    = 97.2854
RA_OF_ASC_NODE = 110.1357
ARG_OF_PERICENTER = 45.7881
MEAN_ANOMALY   = 314.3512

EPHEMERIS_TYPE = 0
CLASSIFICATION_TYPE = U
NORAD_CAT_ID   = 67602
ELEMENT_SET_NO = 999
REV_AT_EPOCH   = 365
BSTAR          = .7961E-3
MEAN_MOTION_DOT = .155384E-2
MEAN_MOTION_DDOT = 0

CCSDS_OMM_VERS = 2.0
CREATION_DATE  = 
ORIGINATOR     = 

OBJECT_NAME    = STARLINK-36626
OBJECT_ID      = 2026-018Q
CENTER_NAME    = EARTH
REF_FRAME      = TEME
TIME_SYSTEM    = UTC
MEAN_ELEMENT_THEORY = SGP/SGP4

EPOCH          = 2026-02-14T11:24:05.546880
MEAN_MOTION    = 15.80861865
ECCENTRICITY   = .0001139
INCLINATION    = 97.2856
RA_OF_ASC_NODE = 110.1391
ARG_OF_PERICENTER = 71.9997
MEAN_ANOMALY   = 288.1395

EPHEMERIS_TYPE = 0
CLASSIFICATION_TYPE = U
NORAD_CAT_ID   = 67603
ELEMENT_SET_NO = 999
REV_AT_EPOCH   = 365
BSTAR          = .83413E-3
MEAN_MOTION_DOT = .162994E-2
MEAN_MOTION_DDOT = 0

