STARLINK-36603          
1 67592U 26018D   26045.36204675  .00231692  00000+0  11733-2 0  9995
2 67592  97.2849 109.9893 0001125  97.1077 263.0320 15.80913298  3633
STARLINK-36634          
1 67593U 26018E   26045.48750137  .00197923  00000+0  10079-2 0  9998
2 67593  97.2849 110.1247 0000810 110.2783 249.8572 15.80879315  3656
STARLINK-36638          
1 67594U 26018F   26045.48639130  .00228633  00000+0  11589-2 0  9998
2 67594  97.2849 110.1266 0001080 136.0323 224.1032 15.80900807  3652
STARLINK-36628          
1 67595U 26018G   26045.35900302 -.00483039  00000+0 -27077-2 0  9991
2 67595  97.2854 109.9927 0001554  63.5944 296.5484 15.80451878  3639
STARLINK-36629          
1 67596U 26018H   26045.50002314 -.00055159  00000+0 -37095-3 0  9995
2 67596  97.2845 110.1261 0001319  90.2124 315.8404 15.75213394  3619
STARLINK-36384          
1 67597U 26018J   26045.48344594  .00240276  00000+0  12171-2 0  9993
2 67597  97.2851 110.1291 0000454 114.7225 245.4091 15.80883253  3650
STARLINK-36358          
1 67598U 26018K   26045.50002314  .00117126  00000+0  77722-3 0  9999
2 67598  97.2849 110.1402 0001314 102.6582 337.3728 15.75136087  3669
STARLINK-36582          
1 67599U 26018L   26045.48149450  .00243747  00000+0  12340-2 0  9993
2 67599  97.2852 110.1316 0000853  42.1430 317.9904 15.80887820  3704
STARLINK-36640          
1 67600U 26018M   26045.50002314 -.00021161  00000+0 -14142-3 0  9995
2 67600  97.2848 110.1300 0001396 103.9112 314.1442 15.75179164  3627
STARLINK-36635          
1 67601U 26018N   26045.48060509  .00232353  00000+0  11776-2 0  9997
2 67601  97.2851 110.1326 0000935 111.6761 248.4607 15.80893902  3658
STARLINK-36631          
1 67602U 26018P   26045.47822909  .00155384  00000+0  79610-3 0  9997
2 67602  97.2854 110.1357 0001525  45.7881 314.3512 15.80856723  3650
STARLINK-36626          
1 67603U 26018Q   26045.47506420  .00162994  00000+0  83413-3 0  9996
2 67603  97.2856 110.1391 0001139  71.9997 288.1395 15.80861865  3651
